#aV2012  8  8  0  0  0.00000000     288 DD+AD WGS84 FIT  NGA
## 1700 259200.00000000   300.00000000 56147 0.0000000000000
+   31     1  2  3  4  5  6  7  8  9 10 11 12 13 14 15 16 17
+         18 19 20 21 22 23 25 26 27 28 29 30 31 32  0  0  0
+          0  0  0  0  0  0  0  0  0  0  0  0  0  0  0  0  0
+          0  0  0  0  0  0  0  0  0  0  0  0  0  0  0  0  0
+          0  0  0  0  0  0  0  0  0  0  0  0  0  0  0  0  0
++         2  2  2  2  2  2  2  2  2  2  2  2  2  2  2  2  2
++         2  2  2  2  2  2  2  2  2  2  2  2  2  2  2  0  0
++         0  0  0  0  0  0  0  0  0  0  0  0  0  0  0  0  0
++         0  0  0  0  0  0  0  0  0  0  0  0  0  0  0  0  0
++         0  0  0  0  0  0  0  0  0  0  0  0  0  0  0  0  0
%c cc cc ccc ccc cccc cccc cccc cccc ccccc ccccc ccccc ccccc
%c cc cc ccc ccc cccc cccc cccc cccc ccccc ccccc ccccc ccccc
%f  0.0000000  0.000000000  0.00000000000  0.000000000000000
%f  0.0000000  0.000000000  0.00000000000  0.000000000000000
%i    0    0    0    0      0      0      0      0         0
%i    0    0    0    0      0      0      0      0         0
/*      NGA, ST. LOUIS,MO.                                  
/*   EPHEMERIS COMPUTED FROM  1 DAYS OF DATA
/*   EPOCHA SMOOTHER  
/* CCCCCCCCCCCCCCCCCCCCCCCCCCCCCCCCCCCCCCCCCCCCCCCCCCCCCCCCC
*  2012  8  8 11 30  0.00000000                                                 
P  1 -22105.640569 -12911.374954   7157.223555    268.790878                    
V  1  -5045.709678  -8012.176905 -29948.977432      0.015046                    
P  2  10197.125044  21228.332164  12903.318504    399.258456                    
V  2 -13716.585002  -8612.856509  24782.967316      0.011268                    
P  3  -5607.971932 -15105.551477 -21591.230759     85.546196                    
V  3  23876.925006 -11299.109516   2007.906943      0.049026                    
P  4  -3410.258342  16668.983886  20065.955798    268.039904                    
V  4 -20488.558894 -16409.354611  10330.073266      0.113434                    
P  5   3197.090785  23850.182184 -11115.432240   -341.792912                    
V  5  -5602.908894  13297.364093  27090.068070     -0.032878                    
P  6    298.428884 -16423.438117 -20707.536053     -5.434807                    
V  6  25185.225685  -8890.774827   7688.097459     -0.066738                    
P  7 -19631.141352  -1596.701149 -17927.468582    108.729068                    
V  7 -15853.769285 -16246.839038  18512.243108      0.039759                    
P  8 -10603.884664   9673.096043 -22268.393118      1.946484                    
V  8 -19346.767712 -20747.282110   -368.439368      0.001742                    
P  9  20785.236758  16244.962505   2220.173452    177.257159                    
V  9   1223.166604   3914.369463 -32156.934525      0.026385                    
P 10  -9256.917662  24084.701366   5069.841073    -47.520271                    
V 10  -1990.103166  -7478.391933  30761.602920     -0.012635                    
P 11 -23175.921526 -13190.329320  -2202.953512   -290.052922                    
V 11   4179.888049  -3237.668766 -29711.929239     -0.039439                    
P 12  12568.593907   9364.709525  21456.511375     84.305785                    
V 12  -6633.307239  26372.841999  -7431.878283      0.020471                    
P 13 -26064.397920   5305.633720    958.501666    189.346817                    
V 13    907.514816  -2211.390715  32179.818747     -0.025024                    
P 14  17526.420443 -14264.579095  14018.964348    209.389892                    
V 14  17409.427000  -2613.526710 -24903.924783      0.010960                    
P 15  18446.203112   7125.914317 -17835.897512    -93.459034                    
V 15 -20713.298244   9228.775219 -17524.831017     -0.005138                    
P 16  -1785.764974 -23785.286836 -11347.553666   -243.199729                    
V 16   5592.500702 -13520.459471  27778.135336     -0.009313                    
P 17 -17721.773356  14692.110629  13218.155299    106.769534                    
V 17 -16559.684714   2411.778606 -25459.691741     -0.030782                    
P 18  15755.882982 -11824.513313 -17271.842477    209.090844                    
V 18  -2382.413943  22926.905485 -17852.556093      0.018181                    
P 19 -16178.747903  -9768.876901 -18879.102554   -292.369328                    
V 19  22820.452965  -6538.962402 -15829.713607     -0.036307                    
P 20 -15097.718322  -5224.013445  21066.175024     65.910847                    
V 20   4669.278383 -26834.860635  -3216.660645      0.006345                    
P 21  18518.695105  -1969.570879 -18629.826674   -241.830476                    
V 21  17267.014959  17645.996535  14331.547089     -0.024701                    
P 22  10253.261902 -23447.094459  -6664.106954    146.369012                    
V 22   1877.354590   9400.135081 -29480.254456      0.003953                    
P 23 -23639.047357  -1681.557074  12424.329355    177.204112                    
V 23  14220.158026  -6645.689411  25875.239908     -0.039008                    
P 25  15595.901103  -5932.533560  20608.028597     39.180885                    
V 25  -4232.803908  25923.684022  10705.397515      0.009795                    
P 26   5727.630734  14034.788396 -22451.295476   -321.476724                    
V 26 -26215.410765   6158.479461  -2570.519205      0.121439                    
P 27  20263.608705  17546.399792   -858.889830    417.922979                    
V 27  -2488.730310    173.617225 -31856.911239      0.042051                    
P 28 -11929.641867  21553.668889  -9078.581855    173.109093                    
V 28    879.388679 -12552.057681 -29393.274146      0.038941                    
P 29  25707.444171  -2913.415533   5958.335414    341.989149                    
V 29  -6508.168728   4564.933796  30649.133730      0.040953                    
P 30   2165.723653 -26473.162089   -856.258501   -349.428288                    
V 30   2868.189357   -355.077241  31717.733796     -0.240694                    
P 31    982.675228 -17446.091924  20114.723467    266.060009                    
V 31  19113.427317  16371.416253  13627.446272      0.026265                    
P 32  -9962.322983 -15396.260518  19575.025425   -474.238127                    
V 32   8038.263605 -22969.671170 -13637.649457     -0.043049                    
EOF
